[{"OBJECT_NAME":"STARLINK-31992","OBJECT_ID":"2024-111H","EPOCH":"2026-03-09T05:37:48.124992","MEAN_MOTION":15.3019184,"ECCENTRICITY":9.572e-5,"INCLINATION":53.16,"RA_OF_ASC_NODE":77.7534,"ARG_OF_PERICENTER":85.9323,"MEAN_ANOMALY":274.1787,"EPHEMERIS_TYPE":0,"CLASSIFICATION_TYPE":"U","NORAD_CAT_ID":60023,"ELEMENT_SET_NO":999,"REV_AT_EPOCH":9897,"BSTAR":4.3348426e-5,"MEAN_MOTION_DOT":9.25e-6,"MEAN_MOTION_DDOT":0},{"OBJECT_NAME":"ARCSTONE","OBJECT_ID":"2025-135N","EPOCH":"2026-03-09T21:21:29.017152","MEAN_MOTION":15.28638458,"ECCENTRICITY":0.00041199,"INCLINATION":97.4495,"RA_OF_ASC_NODE":185.9194,"ARG_OF_PERICENTER":166.7863,"MEAN_ANOMALY":193.3485,"EPHEMERIS_TYPE":0,"CLASSIFICATION_TYPE":"U","NORAD_CAT_ID":64540,"ELEMENT_SET_NO":999,"REV_AT_EPOCH":3984,"BSTAR":0.00094899777,"MEAN_MOTION_DOT":0.00026427,"MEAN_MOTION_DDOT":0}]
